BEIDOU-3S IGSO-1S       
1 40549U 15019A   26163.85297113 -.00000181  00000+0  00000+0 0  9991
2 40549  49.2042 295.5153 0038892 190.7649 173.7832  1.00251378 41037
NAVSTAR 74 (USA 262)    
1 40730U 15033A   26164.23226416 -.00000019  00000+0  00000+0 0  9990
2 40730  53.9855 267.2497 0115057  30.2220 330.4618  2.00556392 79919
BEIDOU-3S M2S           
1 40748U 15037A   26162.95383127 -.00000067  00000+0  00000+0 0  9996
2 40748  54.8763 302.2271 0008107 260.4209  99.4710  1.86232251 74027
BEIDOU-3S M1S           
1 40749U 15037B   26164.23564090 -.00000069  00000+0  00000+0 0  9992
2 40749  54.8712 302.1701 0003517  61.4306 298.5865  1.86254754 74054
GSAT0205 (GALILEO 9)    
1 40889U 15045A   26144.30399159 -.00000014  00000+0  00000+0 0  9994
2 40889  54.9357 222.4171 0006405 263.0112  96.9692  1.67409242 66562
GSAT0206 (GALILEO 10)   
1 40890U 15045B   26162.59146578  .00000056  00000+0  00000+0 0  9997
2 40890  54.9462 221.7590 0001677 340.3003  19.7849  1.70473866 66948
BEIDOU-3S IGSO-2S       
1 40938U 15053A   26163.74469534 -.00000142  00000+0  00000+0 0  9994
2 40938  49.2285 258.8368 0065649 191.9676 173.7648  1.00260456 39311
NAVSTAR 75 (USA 265)    
1 41019U 15062A   26160.29992778 -.00000064  00000+0  00000+0 0  9996
2 41019  56.9540  31.1152 0111654 231.1327 127.9172  2.00566961 77677
GSAT-15                 
1 41028U 15065A   26164.06754045 -.00000244  00000+0  00000+0 0  9991
2 41028   0.0809 266.0040 0003996 160.3497 312.8399  1.00269799 38750
GSAT0209 (GALILEO 12)   
1 41174U 15079A   26162.75947448  .00000007  00000+0  00000+0 0  9999
2 41174  55.8242 101.4109 0005369 341.4474  18.4942  1.70473724 64688
GSAT0208 (GALILEO 11)   
1 41175U 15079B   26160.63344479  .00000022  00000+0  00000+0 0  9997
2 41175  55.8212 101.4660 0004898 340.3551  19.5970  1.70473549 65069
IRNSS-1E                
1 41241U 16003A   26163.64327530 -.00000313  00000+0  00000+0 0  9996
2 41241  33.2248  59.8162 0017963 179.0965   5.2620  1.00267194 38039
NAVSTAR 76 (USA 266)    
1 41328U 16007A   26161.88615589 -.00000012  00000+0  00000+0 0  9990
2 41328  55.5202  89.7095 0096068 247.3778 111.5924  2.00551975 75711
COSMOS 2514 [GLONASS-M] 
1 41330U 16008A   26163.59256340 -.00000049  00000+0  00000+0 0  9990
2 41330  65.0246 313.1642 0011120 197.6902 162.2592  2.13102522 80525
BEIDOU-2 IGSO-6         
1 41434U 16021A   26162.98515472 -.00000157  00000+0  00000+0 0  9996
2 41434  60.2181  38.0924 0057076 231.5598  78.5171  1.00260204 37420
IRNSS-1G                
1 41469U 16027A   26164.28854314 -.00000325  00000+0  00000+0 0  9993
2 41469   5.1885  97.5629 0007521 354.0478  43.4155  1.00268008 37149
GSAT0211 (GALILEO 14)   
1 41549U 16030A   26163.69036354  .00000060  00000+0  00000+0 0  9991
2 41549  55.0965 221.8188 0002905 323.3374  36.7400  1.70473888 62594
GSAT0210 (GALILEO 13)   
1 41550U 16030B   26163.36105147  .00000059  00000+0  00000+0 0  9992
2 41550  55.0961 221.8258 0004052 240.3650 119.6902  1.70473729 62581
BEIDOU-2 G7             
1 41586U 16037A   26164.28472978 -.00000341  00000+0  00000+0 0  9994
2 41586   1.7089  69.2879 0006868   3.8389  41.4450  1.00265803  6853
EUTELSAT 117 WEST B     
1 41589U 16038B   26163.66936341  .00000003  00000+0  00000+0 0  9992
2 41589   0.0415 163.2294 0000296 263.8211 317.9261  1.00272645 36618
GSAT0207 (GALILEO 15)   
1 41859U 16069A   26163.05270994  .00000004  00000+0  00000+0 0  9995
2 41859  55.4957 101.2283 0005347 329.0702  30.8583  1.70473572 59314
GSAT0212 (GALILEO 16)   
1 41860U 16069B   26163.49272941  .00000000  00000+0  00000+0 0  9995
2 41860  55.4937 101.2113 0004658 357.7539   2.2023  1.70473717 59577
GSAT0213 (GALILEO 17)   
1 41861U 16069C   26162.68680405  .00000007  00000+0  00000+0 0  9991
2 41861  55.4953 101.2414 0005060 311.8034  48.1151  1.70474158 59424
GSAT0214 (GALILEO 18)   
1 41862U 16069D   26163.41958315  .00000001  00000+0  00000+0 0  9996
2 41862  55.4945 101.2137 0004287 319.1479  40.7786  1.70473835 59560
SES-15                  
1 42709U 17026A   26163.66693674  .00000074  00000+0  00000+0 0  9992
2 42709   0.0213 330.6262 0000880  52.5288 348.7826  1.00271358  7381
QZS-2 (MICHIBIKI-2)     
1 42738U 17028A   26160.53939596 -.00000147  00000+0  00000+0 0  9997
2 42738  39.4388 243.2674 0760581 269.1776  81.0235  1.00285994  7547
QZS-3 (MICHIBIKI-3)     
1 42917U 17048A   26164.28802312  .00000000  00000+0  00000+0 0  9996
2 42917   0.0245 173.1712 0002410 278.7610  40.3236  1.00264910 32226
COSMOS 2522 [GLONASS-M] 
1 42939U 17055A   26163.43038774  .00000120  00000+0  00000+0 0  9990
2 42939  64.0786 192.0463 0010802 240.5357 119.4330  2.13102011 67872
QZS-4 (MICHIBIKI-4)     
1 42965U 17062A   26163.36175737 -.00000323  00000+0  00000+0 0  9996
2 42965  40.1109 343.5445 0745239 271.6622 273.0963  1.00251829 31751
BEIDOU-3 M1             
1 43001U 17069A   26161.15259502 -.00000050  00000+0  00000+0 0  9990
2 43001  56.6854  63.3171 0010600 324.5878  35.3649  1.86231422 58472
BEIDOU-3 M2             
1 43002U 17069B   26163.77611076 -.00000055  00000+0  00000+0 0  9994
2 43002  56.6872  63.2666 0009220 350.0125   9.9939  1.86230859 58513
